[{"OBJECT_NAME":"STARLINK-33556","OBJECT_ID":"2024-220X","EPOCH":"2026-03-09T10:17:38.158368","MEAN_MOTION":15.27575525,"ECCENTRICITY":0.00016157,"INCLINATION":43.0048,"RA_OF_ASC_NODE":206.8151,"ARG_OF_PERICENTER":294.5521,"MEAN_ANOMALY":65.5162,"EPHEMERIS_TYPE":0,"CLASSIFICATION_TYPE":"U","NORAD_CAT_ID":62109,"ELEMENT_SET_NO":999,"REV_AT_EPOCH":7317,"BSTAR":0.0015048592,"MEAN_MOTION_DOT":0.00041375,"MEAN_MOTION_DDOT":0},{"OBJECT_NAME":"TROLL","OBJECT_ID":"2025-009BB","EPOCH":"2026-03-09T05:24:19.835712","MEAN_MOTION":15.28164315,"ECCENTRICITY":0.00018165,"INCLINATION":97.3932,"RA_OF_ASC_NODE":150.7169,"ARG_OF_PERICENTER":59.185,"MEAN_ANOMALY":300.9568,"EPHEMERIS_TYPE":0,"CLASSIFICATION_TYPE":"U","NORAD_CAT_ID":62658,"ELEMENT_SET_NO":999,"REV_AT_EPOCH":11817,"BSTAR":0.00048220305,"MEAN_MOTION_DOT":0.00013174,"MEAN_MOTION_DDOT":0}]
